0 SL-8 DEB
1 10526U 77116D   13282.76287275  .00000063  00000-0  14511-3 0  8731
2 10526 065.8363 045.6479 0021148 072.1595 000.5206 13.77311653798304
0 SL-8 DEB
1 10526U 77116D   13287.11704758  .00000098  00000-0  18017-3 0  8750
2 10526 065.8368 034.8498 0021159 068.8713 351.0609 13.77313033798907
0 SL-8 DEB
1 10526U 77116D   13289.15319586  .00000130  00000-0  21166-3 0  8764
2 10526 065.8368 029.8005 0021219 067.3867 007.4281 13.77313991799188
0 SL-8 DEB
1 10526U 77116D   13291.48912927  .00000134  00000-0  21662-3 0  8777
2 10526 065.8366 024.0076 0021288 065.6654 070.3241 13.77314921799507
0 SL-8 DEB
1 10526U 77116D   13293.51212120  .00000132  00000-0  21384-3 0  8781
2 10526 065.8365 018.9906 0021332 064.1602 021.4974 13.77315934799782
0 SL-8 DEB
1 10526U 77116D   13295.68896149  .00000122  00000-0  20450-3 0  8793
2 10526 065.8364 013.5920 0021386 062.5002 015.5887 13.77316917800088
